FALCONSAT-10            
1 58291U 23174AM  26068.70247784  .00006748  00000+0  25969-3 0  9991
2 58291  97.3865 145.7938 0008932 169.5942 190.5483 15.26670596129582
STARLINK-32797          
1 62843U 25019Q   26068.44081529  .00022869  00000+0  83783-3 0  9993
2 62843  43.0038  90.3174 0001649 276.4887  83.5777 15.27586348 62216
